STARLINK-32084          
1 60347U 24136U   26068.40520565 -.00000231  00000+0  43394-5 0  9999
2 60347  53.1610  76.7943 0001266  92.6485 267.4660 15.30190369 89626
KUIPER-00226            
1 67785U 26030X   26068.62629313  .00046834  00000+0  15530-2 0  9998
2 67785  51.8814 220.1252 0017713  64.2781 296.0030 15.30655594  5078
