[{"OBJECT_NAME":"STARLINK-32084","OBJECT_ID":"2024-136U","EPOCH":"2026-03-09T09:43:29.768160","MEAN_MOTION":15.30190369,"ECCENTRICITY":0.00012665,"INCLINATION":53.161,"RA_OF_ASC_NODE":76.7943,"ARG_OF_PERICENTER":92.6485,"MEAN_ANOMALY":267.466,"EPHEMERIS_TYPE":0,"CLASSIFICATION_TYPE":"U","NORAD_CAT_ID":60347,"ELEMENT_SET_NO":999,"REV_AT_EPOCH":8962,"BSTAR":4.3394e-6,"MEAN_MOTION_DOT":-2.31e-6,"MEAN_MOTION_DDOT":0},{"OBJECT_NAME":"KUIPER-00226","OBJECT_ID":"2026-030X","EPOCH":"2026-03-09T15:01:51.726432","MEAN_MOTION":15.30655594,"ECCENTRICITY":0.0017713,"INCLINATION":51.8814,"RA_OF_ASC_NODE":220.1252,"ARG_OF_PERICENTER":64.2781,"MEAN_ANOMALY":296.003,"EPHEMERIS_TYPE":0,"CLASSIFICATION_TYPE":"U","NORAD_CAT_ID":67785,"ELEMENT_SET_NO":999,"REV_AT_EPOCH":507,"BSTAR":0.001553,"MEAN_MOTION_DOT":0.00046834,"MEAN_MOTION_DDOT":0}]
